ONEWEB-0564             
1 55801U 23029F   24253.91404970  .00000153  00000+0  34473-3 0  9997
2 55801  87.9229  42.8186 0001781  80.4120 279.7214 13.20774333 75972
ONEWEB-0638             
1 55802U 23029G   24253.91425711  .00000223  00000+0  56591-3 0  9997
2 55802  87.8943  58.0856 0001100  84.2735 275.8520 13.14499449 74620
ONEWEB-0639             
1 55803U 23029H   24253.90682685  .00000076  00000+0  15858-3 0  9999
2 55803  87.9097  73.3329 0001979 134.5578 225.5716 13.19722983 73798
ONEWEB-0640             
1 55804U 23029J   24253.92377607  .00000147  00000+0  36078-3 0  9993
2 55804  87.8938  58.0777 0000897 105.9792 254.1437 13.14499456 74641
ONEWEB-0641             
1 55805U 23029K   24253.90208695  .00000082  00000+0  17261-3 0  9993
2 55805  87.9095  73.3136 0001691  99.3292 260.8032 13.19723354 73804
ONEWEB-0642             
1 55806U 23029L   24253.89736207  .00000051  00000+0  94258-4 0  9995
2 55806  87.9100  73.3407 0002057 121.7416 238.3917 13.19725606 73790
ONEWEB-0643             
1 55807U 23029M   24253.89363089  .00000210  00000+0  53171-3 0  9995
2 55807  87.8941  58.0618 0002448 111.3225 248.8166 13.14504161 74614
ONEWEB-0644             
1 55808U 23029N   24253.89261206  .00000054  00000+0  10144-3 0  9993
2 55808  87.9102  73.3395 0001892 110.0040 250.1296 13.19723379 73797
